INTELSAT 902 (IS-902)   
1 26900U 01039A   26204.08169595 -.00000284  00000+0  00000+0 0  9990
2 26900   6.2041  71.3386 0004265  50.8048 157.9936  1.00272197 91056
INTELSAT 904 (IS-904)   
1 27380U 02007A   26204.39225604 -.00000227  00000+0  00000+0 0  9994
2 27380   7.0075  68.7452 0005230  30.1150 312.0102  1.00273502 52122
DIRECTV 5 (TEMPO 1)     
1 27426U 02023A   26204.46080282 -.00000057  00000+0  00000+0 0  9993
2 27426   4.9676  74.8547 0003228  45.3841 236.7318  1.00272282 88482
INTELSAT 905 (IS-905)   
1 27438U 02027A   26204.59978074  .00000092  00000+0  00000+0 0  9997
2 27438   6.8421  69.3558 0003609  52.0788 258.6114  1.00273160 51723
GALAXY 3C (G-3C)        
1 27445U 02030A   26204.59353845 -.00000151  00000+0  00000+0 0  9999
2 27445   3.8256  77.5073 0001871  29.3929 313.2499  1.00271496 46852
INTELSAT 906 (IS-906)   
1 27513U 02041A   26204.12603046  .00000012  00000+0  00000+0 0  9992
2 27513   5.8901  72.4726 0003403  32.5508 305.3618  1.00271514 87387
GALAXY 13 (HORIZONS-1)  
1 27954U 03044A   26203.72717649  .00000135  00000+0  00000+0 0  9991
2 27954   1.5078  83.3980 0002074  44.1505 284.7210  1.00274659 46922
INTELSAT 10-02          
1 28358U 04022A   26204.39823608 -.00000007  00000+0  00000+0 0  9993
2 28358   0.0606 255.6866 0000155 184.1449   3.6617  1.00269181 80919
DIRECTV 8               
1 28659U 05019A   26204.51741802  .00000006  00000+0  00000+0 0  9991
2 28659   0.0137  80.9777 0003214  44.0764 243.4135  1.00271245 77431
GALAXY 28 (G-28)        
1 28702U 05022A   26204.39312272 -.00000199  00000+0  00000+0 0  9999
2 28702   3.3885  78.4817 0002313  42.5900 294.4803  1.00271601 52333
GALAXY 16 (G-16)        
1 29236U 06023A   26204.52140471 -.00000122  00000+0  00000+0 0  9995
2 29236   0.0273 126.1626 0002844 357.0508 266.7380  1.00272778 73338
DIRECTV 9S              
1 29494U 06043A   26204.52097138 -.00000111  00000+0  00000+0 0  9992
2 29494   2.5117  80.4643 0005223  35.4843 271.6481  1.00271942 51742
GALAXY 17 (G-17)        
1 31307U 07016B   26204.52417806 -.00000204  00000+0  00000+0 0  9990
2 31307   3.0605  79.4425 0003554  35.4291 290.0700  1.00272174 70168
INTELSAT 11 (IS-11)     
1 32253U 07044B   26204.39182271 -.00000238  00000+0  00000+0 0  9999
2 32253   3.6568  78.2255 0004704  98.6762 231.9004  0.99051909 68800
HORIZONS-2              
1 32388U 07063B   26204.52643140 -.00000251  00000+0  00000+0 0  9996
2 32388   2.6930  80.1802 0003698  22.0985 314.6957  1.00271872 68172
DIRECTV 11              
1 32729U 08013A   26204.41273333 -.00000121  00000+0  00000+0 0  9998
2 32729   0.0121 275.8079 0000213 165.5207 269.2057  1.00272046 45955
GALAXY 18 (G-18)        
1 32951U 08024A   26203.79488922  .00000000  00000+0  00000+0 0  9994
2 32951   0.0189  52.6571 0003152  74.3921 336.6648  1.00273574 46211
GALAXY 19 (G-19)        
1 33376U 08045A   26204.59310512 -.00000134  00000+0  00000+0 0  9996
2 33376   0.0610 250.3489 0002744 244.1349 283.3488  1.00271745 65268
FM-5                    
1 35493U 09034A   26204.02496500 -.00000195  00000+0  00000+0 0  9994
2 35493   0.0406 259.5463 0000846 130.3836 193.6336  1.00269883 47001
INTELSAT 14 (IS-14)     
1 36097U 09064A   26204.31822171 -.00000269  00000+0  00000+0 0  9999
2 36097   0.0162  55.0276 0002580  69.6567 245.9187  1.00271107 60961
INTELSAT 15 (IS-15)     
1 36106U 09067A   26204.55791828 -.00000180  00000+0  00000+0 0  9995
2 36106   0.0143  56.0874 0002414  65.1504 106.0515  1.00272108 41596
DIRECTV 12              
1 36131U 09075A   26204.51897575 -.00000099  00000+0  00000+0 0  9993
2 36131   0.0137 229.6425 0000220 313.0373 202.6779  1.00271917 46912
INTELSAT 16 (IS-16)     
1 36397U 10006A   26204.52591140 -.00000240  00000+0  00000+0 0  9991
2 36397   0.0115   8.6789 0002141 110.1026 295.6033  1.00272178 60017
XM-5                    
1 37185U 10053A   26204.32590370 -.00000018  00000+0  00000+0 0  9994
2 37185   0.0616 262.9774 0001327 309.4997  90.7012  1.00271189 57842
INTELSAT 17 (IS-17)     
1 37238U 10065B   26204.55410493  .00000003  00000+0  00000+0 0  9991
2 37238   0.0181 101.4554 0002406  21.4474  83.8604  1.00272613 53615
INTELSAT 28 (IS-28)     
1 37392U 11016A   26204.24955573 -.00000222  00000+0  00000+0 0  9992
2 37392   1.8967  82.1851 0004027  44.0862 232.8386  1.00271117 53649
INTELSAT 18 (IS-18)     
1 37834U 11056A   26203.86382398  .00000057  00000+0  00000+0 0  9998
2 37834   0.0306 264.0516 0001999 225.2474 302.2680  1.00272080 54161
INTELSAT 22 (IS-22)     
1 38098U 12011A   26204.55531828 -.00000054  00000+0  00000+0 0  9992
2 38098   0.0083  21.9915 0002032 124.2010  67.1026  1.00271600  7551
INTELSAT 19 (IS-19)     
1 38356U 12030A   26204.32108507 -.00000052  00000+0  00000+0 0  9997
2 38356   0.0161  51.5069 0003101  68.6402 102.4961  1.00273053 50810
INTELSAT 20 (IS-20)     
1 38740U 12043A   26204.55462494 -.00000020  00000+0  00000+0 0  9996
2 38740   0.0140  78.8330 0001322 106.5707  24.0487  1.00272321 51113
INTELSAT 21 (IS-21)     
1 38749U 12045A   26204.38696935 -.00000280  00000+0  00000+0 0  9995
2 38749   0.0335 261.9243 0001922 230.4888 250.0122  1.00270708 50886
INTELSAT 23 (IS-23)     
1 38867U 12057A   26204.38792269 -.00000280  00000+0  00000+0 0  9996
2 38867   0.0223 303.0734 0000266 240.0093 204.6726  1.00269275 50311
FM-6                    
1 39360U 13058A   26204.51802469 -.00000012  00000+0  00000+0 0  9999
2 39360   0.0104  26.5517 0000898 152.4109 192.4132  1.00277537 46432
INTELSAT 30 (IS-30)     
1 40271U 14062A   26204.25433164 -.00000146  00000+0  00000+0 0  9999
2 40271   0.0184  57.9753 0001535 343.4907 256.0281  1.00270748  7155
DIRECTV 14              
1 40333U 14078B   26204.35376696 -.00000121  00000+0  00000+0 0  9995
2 40333   0.0097  46.3610 0000641 353.0609 289.7825  1.00272581 42405
DIRECTV 15              
1 40663U 15026A   26204.52067006 -.00000097  00000+0  00000+0 0  9998
2 40663   0.0238  80.3598 0000429 323.3497 342.1015  1.00270610 40820
SKY MEXICO-1            
1 40664U 15026B   26204.26572633 -.00000230  00000+0  00000+0 0  9996
2 40664   0.0136 343.1539 0002746 153.1069 181.5917  1.00270417 40811
INTELSAT 34 (IS-34)     
1 40874U 15039A   26204.38748935 -.00000281  00000+0  00000+0 0  9992
2 40874   0.0089  14.4604 0000595  27.7318 342.9283  1.00270542 39990
INTELSAT 31 (IS-31)     
1 41581U 16035A   26204.25327637 -.00000146  00000+0  00000+0 0  9993
2 41581   0.0098 300.6066 0000732   2.7170 353.7911  1.00271399 37043
INTELSAT 36 (IS-36)     
1 41747U 16053A   26204.55462494 -.00000020  00000+0  00000+0 0  9992
2 41747   0.0121  39.7895 0002180 312.5927 217.0588  1.00272577 36326
INTELSAT 32E (IS-32E)   
1 41945U 17007B   26204.53223810  .00000000  00000+0  00000+0 0  9994
2 41945   0.0215  52.5945 0000555 349.2871  47.8058  1.00269098 34590
INTELSAT 35E (IS-35E)   
1 42818U 17041A   26204.39164938 -.00000233  00000+0  00000+0 0  9990
2 42818   0.0179  61.2992 0002132  57.8681 288.4512  1.00271526 33172
INTELSAT 37E (IS-37E)   
1 42950U 17059A   26204.39485605  .00000000  00000+0  00000+0 0  9994
2 42950   0.0228  56.6410 0003013  71.3836 297.2602  1.00267925 32422
AZERSPACE 2 (IS-38)     
1 43632U 18074A   26204.35669891  .00000141  00000+0  00000+0 0  9993
2 43632   0.0174  47.4997 0001318  54.2391  12.8730  1.00269800 28815
HORIZONS-3E             
1 43633U 18074B   26204.57447168 -.00000026  00000+0  00000+0 0  9992
2 43633   0.0322 239.3133 0000315  79.1148 358.6734  1.00272034 28703
AT&T T-16               
1 44333U 19034A   26204.09332698 -.00000111  00000+0  00000+0 0  9990
2 44333   0.0154  76.6092 0000631 292.9337 224.0216  1.00273461 25990
INTELSAT 39 (IS-39)     
1 44476U 19049B   26204.41062947  .00000038  00000+0  00000+0 0  9994
2 44476   0.0158  46.1399 0000903 318.3964 146.3726  1.00271663 25494
GALAXY 30 (G-30)        
1 46114U 20056C   26204.27708715  .00000042  00000+0  00000+0 0  9994
2 46114   0.0140  70.3799 0002268  48.6314 156.7393  1.00271616 21654
GALAXY 33 (G-33)        
1 54026U 22128A   26204.60232296  .00000084  00000+0  00000+0 0  9996
2 54026   0.0156  17.2912 0002041  96.7538 271.1186  1.00271354 14103
GALAXY 34 (G-34)        
1 54027U 22128B   26204.51551134  .00000064  00000+0  00000+0 0  9990
2 54027   0.0096  46.9851 0001745  68.7858 242.0534  1.00270844 14277
GALAXY 31 (G-31)        
1 54243U 22153A   26203.94677043  .00000000  00000+0  00000+0 0  9992
2 54243   0.0160  65.1214 0001449  61.9203  33.4900  1.00272498  7497
GALAXY 32 (G-32)        
1 54244U 22153B   26204.59431845 -.00000169  00000+0  00000+0 0  9990
2 54244   0.0105  46.0803 0001518  12.5953   5.6072  1.00272188 13506
GALAXY 35 (G-35)        
1 54741U 22170A   26204.59388512  .00000000  00000+0  00000+0 0  9996
2 54741   0.0140  62.8385 0002173  58.7958 300.3879  1.00269675 13252
GALAXY 36 (G-36)        
1 54742U 22170B   26204.59466512 -.00000180  00000+0  00000+0 0  9994
2 54742   0.0227 122.6666 0002779 338.5344 325.2018  1.00272097 13136
GALAXY 37 (G-37)        
1 57493U 23112A   26204.50461549  .00000053  00000+0  00000+0 0  9991
2 57493   0.0152  66.8102 0002134  49.1315 239.9543  1.00271571 10903
